{"fetched_at":"2026-03-30T13:17:50Z","count":15418,"tles":[{"name":"YAOGAN-39 05B","line1":"1 58558U 23194B   26087.83637693  .00006485  00000+0  32300-3 0  9991","line2":"2 58558  34.9917 222.1308 0010425 316.5598  43.4293 15.16864098127882","category":"Other"}]}