{
  "norad_id": 58558,
  "name": "YAOGAN-39 05B",
  "history": [
    {
      "epoch": "2026-03-28T20:04:22.966752Z",
      "apogee_km": 522.5120312023319,
      "perigee_km": 508.13819760909973,
      "latitude_deg": 2.059121929468472e-05,
      "longitude_deg": 94.78402783329472,
      "height_km": 509.0197202529029,
      "semi_major_axis_km": 6893.4621144057155,
      "eccentricity": 0.00104257,
      "inclination_deg": 34.9917,
      "raan_deg": 222.1308,
      "arg_perigee_deg": 316.5598,
      "mean_anomaly_deg": 43.4293,
      "mean_motion_rev_day": 15.16864098
    }
  ]
}